[{"OBJECT_NAME":"ONEWEB-0264","OBJECT_ID":"2021-060R","EPOCH":"2026-04-08T02:45:46.110528","MEAN_MOTION":13.16594779,"ECCENTRICITY":0.0001983,"INCLINATION":87.9047,"RA_OF_ASC_NODE":242.7081,"ARG_OF_PERICENTER":104.2356,"MEAN_ANOMALY":255.8996,"EPHEMERIS_TYPE":0,"CLASSIFICATION_TYPE":"U","NORAD_CAT_ID":48982,"ELEMENT_SET_NO":999,"REV_AT_EPOCH":23037,"BSTAR":-0.00019904,"MEAN_MOTION_DOT":-6.3e-07,"MEAN_MOTION_DDOT":0.0},{"OBJECT_NAME":"ONEWEB-0266","OBJECT_ID":"2021-060T","EPOCH":"2026-04-08T03:16:31.929024","MEAN_MOTION":13.16593398,"ECCENTRICITY":0.0001705,"INCLINATION":87.9052,"RA_OF_ASC_NODE":242.6934,"ARG_OF_PERICENTER":98.6553,"MEAN_ANOMALY":261.4771,"EPHEMERIS_TYPE":0,"CLASSIFICATION_TYPE":"U","NORAD_CAT_ID":48984,"ELEMENT_SET_NO":999,"REV_AT_EPOCH":23036,"BSTAR":5.516100000000001e-05,"MEAN_MOTION_DOT":3.4e-07,"MEAN_MOTION_DDOT":0.0},{"OBJECT_NAME":"ONEWEB-0267","OBJECT_ID":"2021-060U","EPOCH":"2026-04-08T03:32:29.721408","MEAN_MOTION":13.16594188,"ECCENTRICITY":0.0001985,"INCLINATION":87.9048,"RA_OF_ASC_NODE":242.6874,"ARG_OF_PERICENTER":100.6984,"MEAN_ANOMALY":259.4371,"EPHEMERIS_TYPE":0,"CLASSIFICATION_TYPE":"U","NORAD_CAT_ID":48985,"ELEMENT_SET_NO":999,"REV_AT_EPOCH":23037,"BSTAR":-1.1873000000000001e-05,"MEAN_MOTION_DOT":8e-08,"MEAN_MOTION_DDOT":0.0},{"OBJECT_NAME":"ONEWEB-0268","OBJECT_ID":"2021-060V","EPOCH":"2026-04-08T02:46:53.540544","MEAN_MOTION":13.16594181,"ECCENTRICITY":0.0001812,"INCLINATION":87.905,"RA_OF_ASC_NODE":242.7035,"ARG_OF_PERICENTER":102.5062,"MEAN_ANOMALY":257.6272,"EPHEMERIS_TYPE":0,"CLASSIFICATION_TYPE":"U","NORAD_CAT_ID":48986,"ELEMENT_SET_NO":999,"REV_AT_EPOCH":23063,"BSTAR":-0.00048536,"MEAN_MOTION_DOT":-1.73e-06,"MEAN_MOTION_DDOT":0.0},{"OBJECT_NAME":"ONEWEB-0269","OBJECT_ID":"2021-060W","EPOCH":"2026-04-07T22:40:39.533664","MEAN_MOTION":13.16594342,"ECCENTRICITY":0.0001659,"INCLINATION":87.9038,"RA_OF_ASC_NODE":242.7483,"ARG_OF_PERICENTER":106.6504,"MEAN_ANOMALY":253.481,"EPHEMERIS_TYPE":0,"CLASSIFICATION_TYPE":"U","NORAD_CAT_ID":48987,"ELEMENT_SET_NO":999,"REV_AT_EPOCH":23038,"BSTAR":-0.00057763,"MEAN_MOTION_DOT":-2.08e-06,"MEAN_MOTION_DDOT":0.0},{"OBJECT_NAME":"ONEWEB-0270","OBJECT_ID":"2021-060X","EPOCH":"2026-04-08T02:44:36.791808","MEAN_MOTION":13.1659453,"ECCENTRICITY":0.0002074,"INCLINATION":87.9051,"RA_OF_ASC_NODE":242.7055,"ARG_OF_PERICENTER":92.0247,"MEAN_ANOMALY":268.1121,"EPHEMERIS_TYPE":0,"CLASSIFICATION_TYPE":"U","NORAD_CAT_ID":48988,"ELEMENT_SET_NO":999,"REV_AT_EPOCH":23044,"BSTAR":-0.00053178,"MEAN_MOTION_DOT":-1.9e-06,"MEAN_MOTION_DDOT":0.0},{"OBJECT_NAME":"ONEWEB-0271","OBJECT_ID":"2021-060Y","EPOCH":"2026-04-08T02:26:22.917696","MEAN_MOTION":13.16593902,"ECCENTRICITY":0.0002029,"INCLINATION":87.9052,"RA_OF_ASC_NODE":242.6996,"ARG_OF_PERICENTER":97.6155,"MEAN_ANOMALY":262.5207,"EPHEMERIS_TYPE":0,"CLASSIFICATION_TYPE":"U","NORAD_CAT_ID":48989,"ELEMENT_SET_NO":999,"REV_AT_EPOCH":23044,"BSTAR":0.00020313999999999998,"MEAN_MOTION_DOT":9.1e-07,"MEAN_MOTION_DDOT":0.0},{"OBJECT_NAME":"ONEWEB-0272","OBJECT_ID":"2021-060Z","EPOCH":"2026-04-08T02:58:17.061312","MEAN_MOTION":13.16593303,"ECCENTRICITY":0.0002018,"INCLINATION":87.905,"RA_OF_ASC_NODE":242.7056,"ARG_OF_PERICENTER":106.8031,"MEAN_ANOMALY":253.3322,"EPHEMERIS_TYPE":0,"CLASSIFICATION_TYPE":"U","NORAD_CAT_ID":48990,"ELEMENT_SET_NO":999,"REV_AT_EPOCH":23039,"BSTAR":-0.00016178999999999998,"MEAN_MOTION_DOT":-4.9e-07,"MEAN_MOTION_DDOT":0.0},{"OBJECT_NAME":"ONEWEB-0273","OBJECT_ID":"2021-060AA","EPOCH":"2026-04-08T03:30:12.888864","MEAN_MOTION":13.16593888,"ECCENTRICITY":0.0001907,"INCLINATION":87.9051,"RA_OF_ASC_NODE":242.6997,"ARG_OF_PERICENTER":97.4051,"MEAN_ANOMALY":262.7297,"EPHEMERIS_TYPE":0,"CLASSIFICATION_TYPE":"U","NORAD_CAT_ID":48991,"ELEMENT_SET_NO":999,"REV_AT_EPOCH":23037,"BSTAR":-0.00018056,"MEAN_MOTION_DOT":-5.6e-07,"MEAN_MOTION_DDOT":0.0},{"OBJECT_NAME":"ONEWEB-0274","OBJECT_ID":"2021-060AB","EPOCH":"2026-04-07T22:38:19.998528","MEAN_MOTION":13.16621044,"ECCENTRICITY":0.0001789,"INCLINATION":87.9032,"RA_OF_ASC_NODE":242.7501,"ARG_OF_PERICENTER":111.7428,"MEAN_ANOMALY":248.3894,"EPHEMERIS_TYPE":0,"CLASSIFICATION_TYPE":"U","NORAD_CAT_ID":48992,"ELEMENT_SET_NO":999,"REV_AT_EPOCH":23038,"BSTAR":0.006719800000000001,"MEAN_MOTION_DOT":2.583e-05,"MEAN_MOTION_DDOT":0.0},{"OBJECT_NAME":"ONEWEB-0275","OBJECT_ID":"2021-060AC","EPOCH":"2026-04-08T03:50:43.964448","MEAN_MOTION":13.16594065,"ECCENTRICITY":0.0001837,"INCLINATION":87.905,"RA_OF_ASC_NODE":242.6891,"ARG_OF_PERICENTER":102.1561,"MEAN_ANOMALY":257.9775,"EPHEMERIS_TYPE":0,"CLASSIFICATION_TYPE":"U","NORAD_CAT_ID":48993,"ELEMENT_SET_NO":999,"REV_AT_EPOCH":23034,"BSTAR":-1.8546e-05,"MEAN_MOTION_DOT":6e-08,"MEAN_MOTION_DDOT":0.0},{"OBJECT_NAME":"ONEWEB-0276","OBJECT_ID":"2021-060AD","EPOCH":"2026-04-08T02:49:09.408000","MEAN_MOTION":13.16592259,"ECCENTRICITY":0.0001856,"INCLINATION":87.9051,"RA_OF_ASC_NODE":242.6981,"ARG_OF_PERICENTER":105.8218,"MEAN_ANOMALY":254.3118,"EPHEMERIS_TYPE":0,"CLASSIFICATION_TYPE":"U","NORAD_CAT_ID":48994,"ELEMENT_SET_NO":999,"REV_AT_EPOCH":23035,"BSTAR":-5.0825e-05,"MEAN_MOTION_DOT":-7e-08,"MEAN_MOTION_DDOT":0.0},{"OBJECT_NAME":"ONEWEB-0277","OBJECT_ID":"2021-060AE","EPOCH":"2026-04-08T03:07:24.824352","MEAN_MOTION":13.1659323,"ECCENTRICITY":0.0001916,"INCLINATION":87.9044,"RA_OF_ASC_NODE":242.7079,"ARG_OF_PERICENTER":97.7714,"MEAN_ANOMALY":262.3635,"EPHEMERIS_TYPE":0,"CLASSIFICATION_TYPE":"U","NORAD_CAT_ID":48995,"ELEMENT_SET_NO":999,"REV_AT_EPOCH":23034,"BSTAR":-0.00010138999999999999,"MEAN_MOTION_DOT":-2.6e-07,"MEAN_MOTION_DDOT":0.0},{"OBJECT_NAME":"ONEWEB-0278","OBJECT_ID":"2021-060AF","EPOCH":"2026-04-08T02:53:43.083456","MEAN_MOTION":13.16593624,"ECCENTRICITY":0.0001545,"INCLINATION":87.9048,"RA_OF_ASC_NODE":242.695,"ARG_OF_PERICENTER":97.3714,"MEAN_ANOMALY":262.7592,"EPHEMERIS_TYPE":0,"CLASSIFICATION_TYPE":"U","NORAD_CAT_ID":48996,"ELEMENT_SET_NO":999,"REV_AT_EPOCH":23047,"BSTAR":-0.00056973,"MEAN_MOTION_DOT":-2.05e-06,"MEAN_MOTION_DDOT":0.0},{"OBJECT_NAME":"ONEWEB-0279","OBJECT_ID":"2021-060AG","EPOCH":"2026-04-08T03:05:08.471328","MEAN_MOTION":13.16594399,"ECCENTRICITY":0.0002054,"INCLINATION":87.9052,"RA_OF_ASC_NODE":242.6924,"ARG_OF_PERICENTER":101.4346,"MEAN_ANOMALY":258.7016,"EPHEMERIS_TYPE":0,"CLASSIFICATION_TYPE":"U","NORAD_CAT_ID":48997,"ELEMENT_SET_NO":999,"REV_AT_EPOCH":23040,"BSTAR":-0.00018739,"MEAN_MOTION_DOT":-5.9e-07,"MEAN_MOTION_DDOT":0.0},{"OBJECT_NAME":"ONEWEB-0280","OBJECT_ID":"2021-060AH","EPOCH":"2026-04-08T03:26:46.371264","MEAN_MOTION":13.16596132,"ECCENTRICITY":0.0001794,"INCLINATION":87.905,"RA_OF_ASC_NODE":242.694,"ARG_OF_PERICENTER":88.6575,"MEAN_ANOMALY":271.4761,"EPHEMERIS_TYPE":0,"CLASSIFICATION_TYPE":"U","NORAD_CAT_ID":48998,"ELEMENT_SET_NO":999,"REV_AT_EPOCH":23034,"BSTAR":0.00025627,"MEAN_MOTION_DOT":1.11e-06,"MEAN_MOTION_DDOT":0.0},{"OBJECT_NAME":"ONEWEB-0281","OBJECT_ID":"2021-060AJ","EPOCH":"2026-04-08T03:34:46.482240","MEAN_MOTION":13.16594272,"ECCENTRICITY":0.0001773,"INCLINATION":87.9049,"RA_OF_ASC_NODE":242.6869,"ARG_OF_PERICENTER":105.2288,"MEAN_ANOMALY":254.9039,"EPHEMERIS_TYPE":0,"CLASSIFICATION_TYPE":"U","NORAD_CAT_ID":48999,"ELEMENT_SET_NO":999,"REV_AT_EPOCH":23041,"BSTAR":-0.00011162,"MEAN_MOTION_DOT":-3e-07,"MEAN_MOTION_DDOT":0.0},{"OBJECT_NAME":"ONEWEB-0282","OBJECT_ID":"2021-060AK","EPOCH":"2026-04-08T02:28:38.963136","MEAN_MOTION":13.16594227,"ECCENTRICITY":0.0001858,"INCLINATION":87.9049,"RA_OF_ASC_NODE":242.7065,"ARG_OF_PERICENTER":96.1544,"MEAN_ANOMALY":263.9798,"EPHEMERIS_TYPE":0,"CLASSIFICATION_TYPE":"U","NORAD_CAT_ID":49000,"ELEMENT_SET_NO":999,"REV_AT_EPOCH":23038,"BSTAR":-0.00039374,"MEAN_MOTION_DOT":-1.38e-06,"MEAN_MOTION_DDOT":0.0},{"OBJECT_NAME":"ONEWEB-0283","OBJECT_ID":"2021-060AL","EPOCH":"2026-04-08T02:12:41.629536","MEAN_MOTION":13.16594429,"ECCENTRICITY":0.000195,"INCLINATION":87.9049,"RA_OF_ASC_NODE":242.7087,"ARG_OF_PERICENTER":100.7112,"MEAN_ANOMALY":259.4238,"EPHEMERIS_TYPE":0,"CLASSIFICATION_TYPE":"U","NORAD_CAT_ID":49001,"ELEMENT_SET_NO":999,"REV_AT_EPOCH":23039,"BSTAR":-0.00042427,"MEAN_MOTION_DOT":-1.49e-06,"MEAN_MOTION_DDOT":0.0},{"OBJECT_NAME":"ONEWEB-0284","OBJECT_ID":"2021-060AM","EPOCH":"2026-04-07T22:24:42.709824","MEAN_MOTION":13.1659424,"ECCENTRICITY":0.0001638,"INCLINATION":87.905,"RA_OF_ASC_NODE":242.7321,"ARG_OF_PERICENTER":89.3201,"MEAN_ANOMALY":270.8117,"EPHEMERIS_TYPE":0,"CLASSIFICATION_TYPE":"U","NORAD_CAT_ID":49002,"ELEMENT_SET_NO":999,"REV_AT_EPOCH":23035,"BSTAR":-0.00033665,"MEAN_MOTION_DOT":-1.16e-06,"MEAN_MOTION_DDOT":0.0},{"OBJECT_NAME":"ONEWEB-0285","OBJECT_ID":"2021-075A","EPOCH":"2026-04-08T05:26:53.557728","MEAN_MOTION":13.124415,"ECCENTRICITY":0.0001857,"INCLINATION":87.9015,"RA_OF_ASC_NODE":4.5552,"ARG_OF_PERICENTER":77.7787,"MEAN_ANOMALY":282.3549,"EPHEMERIS_TYPE":0,"CLASSIFICATION_TYPE":"U","NORAD_CAT_ID":49075,"ELEMENT_SET_NO":999,"REV_AT_EPOCH":22603,"BSTAR":-0.0012018,"MEAN_MOTION_DOT":-4.2e-06,"MEAN_MOTION_DDOT":0.0},{"OBJECT_NAME":"ONEWEB-0286","OBJECT_ID":"2021-075B","EPOCH":"2026-04-08T05:01:05.340576","MEAN_MOTION":13.12440479,"ECCENTRICITY":0.0001581,"INCLINATION":87.9,"RA_OF_ASC_NODE":4.5826,"ARG_OF_PERICENTER":81.2103,"MEAN_ANOMALY":278.9205,"EPHEMERIS_TYPE":0,"CLASSIFICATION_TYPE":"U","NORAD_CAT_ID":49076,"ELEMENT_SET_NO":999,"REV_AT_EPOCH":22538,"BSTAR":4.5222000000000005e-06,"MEAN_MOTION_DOT":1.4e-07,"MEAN_MOTION_DDOT":0.0},{"OBJECT_NAME":"ONEWEB-0287","OBJECT_ID":"2021-075C","EPOCH":"2026-04-08T05:30:23.494176","MEAN_MOTION":13.17651336,"ECCENTRICITY":0.0001351,"INCLINATION":87.9182,"RA_OF_ASC_NODE":19.7607,"ARG_OF_PERICENTER":78.8972,"MEAN_ANOMALY":281.2311,"EPHEMERIS_TYPE":0,"CLASSIFICATION_TYPE":"U","NORAD_CAT_ID":49077,"ELEMENT_SET_NO":999,"REV_AT_EPOCH":22441,"BSTAR":0.00024418000000000004,"MEAN_MOTION_DOT":1.08e-06,"MEAN_MOTION_DDOT":0.0}]